OBJECT_NAME,OBJECT_ID,EPOCH,MEAN_MOTION,ECCENTRICITY,INCLINATION,RA_OF_ASC_NODE,ARG_OF_PERICENTER,MEAN_ANOMALY,EPHEMERIS_TYPE,CLASSIFICATION_TYPE,NORAD_CAT_ID,ELEMENT_SET_NO,REV_AT_EPOCH,BSTAR,MEAN_MOTION_DOT,MEAN_MOTION_DDOT
SAUDISAT 1C (SO-50),2002-058C,2026-06-18T07:14:22.204032,14.83049007,.00751965,64.5511,125.5368,262.2633,96.9930,0,U,27607,999,26462,.10895501E-3,.775E-5,0
SAUDISAT 2,2004-025F,2026-06-17T23:46:28.503552,14.56684310,.0023567,98.5507,168.9933,295.6692,64.2072,0,U,28371,999,16586,.52053291E-4,.183E-5,0
SAUDISAT 3,2007-012B,2026-06-18T06:41:21.495264,14.71426182,.0013698,98.1456,119.6801,220.1003,139.9193,0,U,31118,999,2790,.40299599E-4,.199E-5,0
PISAT,2016-059B,2026-06-17T23:04:24.956544,14.68984509,.00284433,97.8178,169.3809,200.2325,159.7756,0,U,41784,999,51985,.11935816E-3,.656E-5,0
FLYING LAPTOP,2017-042G,2026-06-18T06:02:56.829696,15.01150483,.00195959,97.4691,324.7430,118.1419,242.1788,0,U,42831,999,48661,.19836078E-3,.2494E-4,0
SALSAT,2020-068K,2026-06-17T23:54:00.626976,15.29809762,.00080177,97.8849,172.1096,304.7591,55.2892,0,U,46495,999,31548,.22101641E-3,.6301E-4,0
